{
    "links": {
        "self": "http://www.neowsapp.com/rest/v1/neo/3763946?api_key=iIulBulltgU6a56xZRHN4H3l9WmuAYTsLGpBGhQ2"
    },
    "id": "3763946",
    "neo_reference_id": "3763946",
    "name": "(2016 WV)",
    "designation": "2016 WV",
    "nasa_jpl_url": "http://ssd.jpl.nasa.gov/sbdb.cgi?sstr=3763946",
    "absolute_magnitude_h": 24.2,
    "estimated_diameter": {
        "kilometers": {
            "estimated_diameter_min": 0.0384197891,
            "estimated_diameter_max": 0.0859092601
        },
        "meters": {
            "estimated_diameter_min": 38.4197891064,
            "estimated_diameter_max": 85.9092601232
        },
        "miles": {
            "estimated_diameter_min": 0.0238729428,
            "estimated_diameter_max": 0.0533815229
        },
        "feet": {
            "estimated_diameter_min": 126.0491808919,
            "estimated_diameter_max": 281.8545369825
        }
    },
    "is_potentially_hazardous_asteroid": false,
    "close_approach_data": [
        {
            "close_approach_date": "1920-01-22",
            "close_approach_date_full": "1920-Jan-22 10:01",
            "epoch_date_close_approach": -1576072740000,
            "relative_velocity": {
                "kilometers_per_second": "19.9958749498",
                "kilometers_per_hour": "71985.1498191896",
                "miles_per_hour": "44728.7726751515"
            },
            "miss_distance": {
                "astronomical": "0.4628247847",
                "lunar": "180.0388412483",
                "kilometers": "69237601.974328589",
                "miles": "43022250.8985649682"
            },
            "orbiting_body": "Earth"
        },
        {
            "close_approach_date": "2016-12-07",
            "close_approach_date_full": "2016-Dec-07 23:19",
            "epoch_date_close_approach": 1481152740000,
            "relative_velocity": {
                "kilometers_per_second": "6.4086060281",
                "kilometers_per_hour": "23070.9817010649",
                "miles_per_hour": "14335.4108241978"
            },
            "miss_distance": {
                "astronomical": "0.0688129079",
                "lunar": "26.7682211731",
                "kilometers": "10294264.450346173",
                "miles": "6396559.3170482674"
            },
            "orbiting_body": "Earth"
        }
    ],
    "orbital_data": {
        "orbit_id": "13",
        "orbit_determination_date": "2017-04-06 08:22:07",
        "first_observation_date": "2016-11-19",
        "last_observation_date": "2016-12-28",
        "data_arc_in_days": 39,
        "observations_used": 63,
        "orbit_uncertainty": "7",
        "minimum_orbit_intersection": ".0595469",
        "jupiter_tisserand_invariant": "3.332",
        "epoch_osculation": "2459000.5",
        "eccentricity": ".5551934596824118",
        "semi_major_axis": "2.345659607006414",
        "inclination": "3.983381089543347",
        "ascending_node_longitude": "263.5224778955481",
        "orbital_period": "1312.187543484665",
        "perihelion_distance": "1.043364734555237",
        "perihelion_argument": "170.4714039993892",
        "aphelion_distance": "3.647954479457592",
        "perihelion_time": "2459045.972310598527",
        "mean_anomaly": "347.5246248931786",
        "mean_motion": ".274351026869207",
        "equinox": "J2000",
        "orbit_class": {
            "orbit_class_type": "AMO",
            "orbit_class_description": "Near-Earth asteroid orbits similar to that of 1221 Amor",
            "orbit_class_range": "1.017 AU < q (perihelion) < 1.3 AU"
        }
    },
    "is_sentry_object": false
}